*******************************************************************************
 Revised: April 12, 2021                Venus                           299 / 2
 
 PHYSICAL DATA (updated 2020-Oct-19):
  Vol. Mean Radius (km) =  6051.84+-0.01 Density (g/cm^3)      =  5.204
  Mass x10^23 (kg)      =    48.685      Volume (x10^10 km^3)  = 92.843
  Sidereal rot. period  =   243.018484 d Sid. Rot. Rate (rad/s)= -0.00000029924
  Mean solar day        =   116.7490 d   Equ. gravity  m/s^2   =  8.870
  Mom. of Inertia       =     0.33       Core radius (km)      = ~3200
  Geometric Albedo      =     0.65       Potential Love # k2   = ~0.25
  GM (km^3/s^2)         = 324858.592     Equatorial Radius, Re = 6051.893 km
  GM 1-sigma (km^3/s^2) =    +-0.006     Mass ratio (Sun/Venus)= 408523.72
  Atmos. pressure (bar) =  90            Max. angular diam.    =   60.2"
  Mean Temperature (K)  = 735            Visual mag. V(1,0)    =   -4.40
  Obliquity to orbit    = 177.3 deg      Hill's sphere rad.,Rp =  167.1
  Sidereal orb. per., y =   0.61519726   Orbit speed, km/s     =   35.021
  Sidereal orb. per., d = 224.70079922   Escape speed, km/s    =   10.361
                                 Perihelion  Aphelion    Mean
  Solar Constant (W/m^2)         2759         2614       2650
  Maximum Planetary IR (W/m^2)    153         153         153
  Minimum Planetary IR (W/m^2)    153         153         153
*******************************************************************************


*******************************************************************************
Ephemeris / WWW_USER Fri Dec  1 12:32:42 2023 Pasadena, USA      / Horizons
*******************************************************************************
Target body name: Venus Barycenter (299)          {source: DE441}
Center body name: Solar System Barycenter (0)     {source: DE441}
Center-site name: BODY CENTER
*******************************************************************************
Start time      : A.D. 2023-Dec-01 00:00:00.0000 TDB
Stop  time      : A.D. 2023-Dec-31 00:00:00.0000 TDB
Step-size       : 1440 minutes
*******************************************************************************
Center geodetic : 0.0, 0.0, 0.0                   {E-lon(deg),Lat(deg),Alt(km)}
Center cylindric: 0.0, 0.0, 0.0                   {E-lon(deg),Dxy(km),Dz(km)}
Center radii    : (undefined)
Output units    : KM-S
Calendar mode   : Mixed Julian/Gregorian
Output type     : GEOMETRIC cartesian states
Output format   : 2 (position and velocity)
Reference frame : Ecliptic of J2000.0
*******************************************************************************
JDTDB
   X     Y     Z
   VX    VY    VZ
*******************************************************************************
$$SOE
2460279.500000000 = A.D. 2023-Dec-01 00:00:00.0000 TDB 
 X =-7.816400366646364E+07 Y = 7.443698280209219E+07 Z = 5.499522774738558E+06
 VX=-2.453487660910571E+01 VY=-2.530241055411627E+01 VZ= 1.068761343807614E+00
2460280.500000000 = A.D. 2023-Dec-02 00:00:00.0000 TDB 
 X =-8.025283708763908E+07 Y = 7.222129077960466E+07 Z = 5.589670191270709E+06
 VX=-2.381453853762746E+01 VY=-2.598334256599661E+01 VZ= 1.017846055439412E+00
2460281.500000000 = A.D. 2023-Dec-03 00:00:00.0000 TDB 
 X =-8.227860971738671E+07 Y = 6.994765903489375E+07 Z = 5.675383266471062E+06
 VX=-2.307523542787249E+01 VY=-2.664351724344687E+01 VZ= 9.661215309925542E-01
2460282.500000000 = A.D. 2023-Dec-04 00:00:00.0000 TDB 
 X =-8.423970895754832E+07 Y = 6.761790422442736E+07 Z = 5.756593900410440E+06
 VX=-2.231757130127229E+01 VY=-2.728240000916611E+01 VZ= 9.136299647205313E-01
2460283.500000000 = A.D. 2023-Dec-05 00:00:00.0000 TDB 
 X =-8.613457506479302E+07 Y = 6.523388841115820E+07 Z = 5.833237666525669E+06
 VX=-2.154216553367116E+01 VY=-2.789947444238368E+01 VZ= 8.604141874895621E-01
2460284.500000000 = A.D. 2023-Dec-06 00:00:00.0000 TDB 
 X =-8.796170245263201E+07 Y = 6.279751747586937E+07 Z = 5.905253864929359E+06
 VX=-2.074965228325012E+01 VY=-2.849424273696518E+01 VZ= 8.065176274783177E-01
2460285.500000000 = A.D. 2023-Dec-07 00:00:00.0000 TDB 
 X =-8.971964094337314E+07 Y = 6.031073948978808E+07 Z = 5.972585572299376E+06
 VX=-1.994067990392405E+01 VY=-2.906622613978283E+01 VZ= 7.519842703104587E-01
2460286.500000000 = A.D. 2023-Dec-08 00:00:00.0000 TDB 
 X =-9.140699696879300E+07 Y = 5.777554305019534E+07 Z = 6.035179688301023E+06
 VX=-1.911591034498266E+01 VY=-2.961496536884272E+01 VZ= 6.968586186715555E-01
2460287.500000000 = A.D. 2023-Dec-09 00:00:00.0000 TDB 
 X =-9.302243471837232E+07 Y = 5.519395558080115E+07 Z = 6.092986978499804E+06
 VX=-1.827601853777037E+01 VY=-3.014002101069308E+01 VZ= 6.411856514626564E-01
2460288.500000000 = A.D. 2023-Dec-10 00:00:00.0000 TDB 
 X =-9.456467723400992E+07 Y = 5.256804159869475E+07 Z = 6.145962113726888E+06
 VX=-1.742169177022536E+01 VY=-3.064097389666916E+01 VZ= 5.850107825440585E-01
2460289.500000000 = A.D. 2023-Dec-11 00:00:00.0000 TDB 
 X =-9.603250745019969E+07 Y = 4.989990094971398E+07 Z = 6.194063705864146E+06
 VX=-1.655362905000695E+01 VY=-3.111742545764550E+01 VZ= 5.283798191158322E-01
2460290.500000000 = A.D. 2023-Dec-12 00:00:00.0000 TDB 
 X =-9.742476917872053E+07 Y = 4.719166701410973E+07 Z = 6.237254340019597E+06
 VX=-1.567254045718927E+01 VY=-3.156899805680281E+01 VZ= 4.713389197982938E-01
2460291.500000000 = A.D. 2023-Dec-13 00:00:00.0000 TDB 
 X =-9.874036803698200E+07 Y = 4.444550488441583E+07 Z = 6.275500603070086E+06
 VX=-1.477914648730740E+01 VY=-3.199533530022861E+01 VZ= 4.139345524601126E-01
2460292.500000000 = A.D. 2023-Dec-14 00:00:00.0000 TDB 
 X =-9.997827231921466E+07 Y = 4.166360951745579E+07 Z = 6.308773108550901E+06
 VX=-1.387417738551993E+01 VY=-3.239610232495453E+01 VZ= 3.562134518438960E-01
2460293.500000000 = A.D. 2023-Dec-15 00:00:00.0000 TDB 
 X =-1.011375138097885E+08 Y = 3.884820386244371E+07 Z = 6.337046517877936E+06
 VX=-1.295837247292362E+01 VY=-3.277098606425137E+01 VZ= 2.982225770511118E-01
2460294.500000000 = A.D. 2023-Dec-16 00:00:00.0000 TDB 
 X =-1.022171885380126E+08 Y = 3.600153696715504E+07 Z = 6.360299557892054E+06
 VX=-1.203247946578733E+01 VY=-3.311969548994387E+01 VZ= 2.400090689339649E-01
2460295.500000000 = A.D. 2023-Dec-17 00:00:00.0000 TDB 
 X =-1.032164574738432E+08 Y = 3.312588206416041E+07 Z = 6.378515034720108E+06
 VX=-1.109725378860004E+01 VY=-3.344196183157845E+01 VZ= 1.816202074482316E-01
2460296.500000000 = A.D. 2023-Dec-18 00:00:00.0000 TDB 
 X =-1.041345471640035E+08 Y = 3.022353463912793E+07 Z = 6.391679843951430E+06
 VX=-1.015345788182197E+01 VY=-3.373753877231439E+01 VZ= 1.231033690198977E-01
2460297.500000000 = A.D. 2023-Dec-19 00:00:00.0000 TDB 
 X =-1.049707503080966E+08 Y = 2.729681048320960E+07 Z = 6.399784977133300E+06
 VX=-9.201860505223200E+00 VY=-3.400620262144594E+01 VZ= 6.450598397803198E-02
2460298.500000000 = A.D. 2023-Dec-20 00:00:00.0000 TDB 
 X =-1.057244262743673E+08 Y = 2.434804373153341E+07 Z = 6.402825524593323E+06
 VX=-8.243236037688911E+00 VY=-3.424775246350102E+01 VZ= 5.875494105222145E-03
2460299.500000000 = A.D. 2023-Dec-21 00:00:00.0000 TDB 
 X =-1.063950015548472E+08 Y = 2.137958488982603E+07 Z = 6.400800674601054E+06
 VX=-7.278363774365234E+00 VY=-3.446201028389856E+01 VZ=-5.274068964375367E-02
2460300.500000000 = A.D. 2023-Dec-22 00:00:00.0000 TDB 
 X =-1.069819701596879E+08 Y = 1.839379885119072E+07 Z = 6.393713708885621E+06
 VX=-6.308027222014703E+00 VY=-3.464882107118502E+01 VZ=-1.112952292050995E-01
2460301.500000000 = A.D. 2023-Dec-23 00:00:00.0000 TDB 
 X =-1.074848939505680E+08 Y = 1.539306290506187E+07 Z = 6.381571994530229E+06
 VX=-5.333013393445171E+00 VY=-3.480805289590683E+01 VZ=-1.697409012021041E-01
2460302.500000000 = A.D. 2023-Dec-24 00:00:00.0000 TDB 
 X =-1.079034029131291E+08 Y = 1.237976474035105E+07 Z = 6.364386972268810E+06
 VX=-4.354112101870924E+00 VY=-3.493959696621400E+01 VZ=-2.280306384258246E-01
2460303.500000000 = A.D. 2023-Dec-25 00:00:00.0000 TDB 
 X =-1.082371953684729E+08 Y = 9.356300444789480E+06 Z = 6.342174141214034E+06
 VX=-3.372115256059690E+00 VY=-3.504336766032652E+01 VZ=-2.861175709529569E-01
2460304.500000000 = A.D. 2023-Dec-26 00:00:00.0000 TDB 
 X =-1.084860381238224E+08 Y = 6.325072502458930E+06 Z = 6.314953040050138E+06
 VX=-2.387816157114091E+00 VY=-3.511930253603361E+01 VZ=-3.439550668542335E-01
2460305.500000000 = A.D. 2023-Dec-27 00:00:00.0000 TDB 
 X =-1.086497665625239E+08 Y = 3.288487791487515E+06 Z = 6.282747224727605E+06
 VX=-1.402008797600469E+00 VY=-3.516736231739694E+01 VZ=-4.014967724550775E-01
2460306.500000000 = A.D. 2023-Dec-28 00:00:00.0000 TDB 
 X =-1.087282846736267E+08 Y = 2.489555838722044E+05 Z = 6.245584242700635E+06
 VX=-4.154871640117397E-01 VY=-3.518753085891349E+01 VZ=-4.586966520933728E-01
2460307.500000000 = A.D. 2023-Dec-29 00:00:00.0000 TDB 
 X =-1.087215650213668E+08 Y =-2.791114450643837E+06 Z = 6.203495603752304E+06
 VX= 5.709554567922711E-01 VY=-3.517981508744774E+01 VZ=-5.155090273457059E-01
2460308.500000000 = A.D. 2023-Dec-30 00:00:00.0000 TDB 
 X =-1.086296486549258E+08 Y =-5.829314234717066E+06 Z = 6.156516747455408E+06
 VX= 1.556527166368694E+00 VY=-3.514424492207917E+01 VZ=-5.718886156716394E-01
2460309.500000000 = A.D. 2023-Dec-31 00:00:00.0000 TDB 
 X =-1.084526449589134E+08 Y =-8.863239265690861E+06 Z = 6.104687007320719E+06
 VX= 2.540438137902676E+00 VY=-3.508087317236490E+01 VZ=-6.277905684434533E-01
